BEIJING-3B              
1 53587U 22103A   22247.00071193 -.00001883  00000+0 -20162-3 0  9999
2 53587  97.9409 315.6230 0013744 225.2090 134.7832 14.87424586  1623
STARLINK-4691           
1 53588U 22104A   22247.25001157 -.01170344  00000+0 -57449-2 0  9998
2 53588  53.2175 252.9320 0017561  58.5546 340.6838 15.83983037  1145
STARLINK-4673           
1 53589U 22104B   22247.25001157 -.01089663  00000+0 -53107-2 0  9999
2 53589  53.2175 252.9275 0016158  57.6222 343.4623 15.83989921  1148
STARLINK-4689           
1 53590U 22104C   22247.25001157 -.01173426  00000+0 -57705-2 0  9990
2 53590  53.2175 252.9311 0016322  57.7956 341.8276 15.83999907  1140
STARLINK-4674           
1 53591U 22104D   22247.25001157 -.01103092  00000+0 -53982-2 0  9996
2 53591  53.2175 252.9296 0015918  57.5751 342.5212 15.83945962  1144
STARLINK-4672           
1 53592U 22104E   22247.25001157 -.01110685  00000+0 -54413-2 0  9993
2 53592  53.2175 252.9298 0015059  56.5672 343.8292 15.83971439  1144
STARLINK-4671           
1 53593U 22104F   22247.25001157 -.01097082  00000+0 -53555-2 0  9995
2 53593  53.2175 252.9284 0016016  57.8880 342.8521 15.83979306  1144
STARLINK-4681           
1 53594U 22104G   22247.25001157 -.01090782  00000+0 -53004-2 0  9995
2 53594  53.2175 252.9273 0016894  58.2618 343.4667 15.84027084  1147
STARLINK-4684           
1 53595U 22104H   22247.25001157 -.01094417  00000+0 -53283-2 0  9994
2 53595  53.2175 252.9270 0016521  58.0542 343.3910 15.84009686  1560
STARLINK-4668           
1 53596U 22104J   22247.25001157 -.01140966  00000+0 -55516-2 0  9997
2 53596  53.2174 252.9249 0016845  58.4242 344.3091 15.84120964  1144
STARLINK-4682           
1 53597U 22104K   22247.25001157 -.01150503  00000+0 -56250-2 0  9992
2 53597  53.2175 252.9258 0015461  57.2877 344.7721 15.84095070  1143
STARLINK-4676           
1 53598U 22104L   22247.25001157 -.01026371  00000+0 -49426-2 0  9995
2 53598  53.2176 252.9239 0017056  60.1879 343.3132 15.84056134  1140
STARLINK-4665           
1 53599U 22104M   22246.91667824  .00154866  19376-4  59511-3 0  9993
2 53599  53.2171 254.5960 0027551  61.5500 240.1325 15.86497355  1304
STARLINK-4677           
1 53600U 22104N   22246.91667824 -.01206332  00000+0 -56054-2 0  9992
2 53600  53.2172 254.5988 0019843  56.8404 244.5750 15.85096779  1510
STARLINK-4675           
1 53601U 22104P   22247.25001157 -.01139189  00000+0 -55425-2 0  9998
2 53601  53.2175 252.9239 0016378  57.7092 345.3836 15.84135662  1146
STARLINK-4648           
1 53602U 22104Q   22247.25001157 -.01092169  00000+0 -52706-2 0  9994
2 53602  53.2175 252.9210 0016718  57.8639 346.9415 15.84179136  1146
STARLINK-4692           
1 53603U 22104R   22247.25001157 -.01118200  00000+0 -54090-2 0  9998
2 53603  53.2175 252.9215 0017044  58.1240 346.3580 15.84179989  1140
STARLINK-4690           
1 53604U 22104S   22247.25001157 -.01227210  00000+0 -58537-2 0  9991
2 53604  53.2176 252.9203 0016617  57.5452 347.8865 15.84307407  1142
STARLINK-4693           
1 53605U 22104T   22247.25001157 -.01113366  00000+0 -54046-2 0  9999
2 53605  53.2175 252.9226 0015753  57.7956 346.0008 15.84143020  1147
STARLINK-4590           
1 53606U 22104U   22247.25001157 -.01160321  00000+0 -55909-2 0  9992
2 53606  53.2174 252.9163 0016934  54.5888 352.9878 15.84364609  1147
STARLINK-4591           
1 53607U 22104V   22247.25001157 -.01161251  00000+0 -56251-2 0  9997
2 53607  53.2174 252.9208 0017149  55.4534 349.7217 15.84249946  1142
STARLINK-4647           
1 53608U 22104W   22247.25001157 -.01249231  00000+0 -59492-2 0  9993
2 53608  53.2175 252.9181 0016661  57.4792 348.9306 15.84382436  1142
STARLINK-4660           
1 53609U 22104X   22247.25001157 -.01108769  00000+0 -53571-2 0  9996
2 53609  53.2175 252.9189 0015391  56.9996 348.8204 15.84241286  1143
STARLINK-4610           
1 53610U 22104Y   22247.25001157 -.01127865  00000+0 -54281-2 0  9995
2 53610  53.2175 252.9167 0016578  57.9729 349.1898 15.84324691  1149
STARLINK-4650           
1 53611U 22104Z   22247.25001157 -.01147742  00000+0 -55392-2 0  9996
2 53611  53.2175 252.9182 0017315  58.5387 347.6095 15.84287045  1147
STARLINK-4658           
1 53612U 22104AA  22247.25001157 -.01135451  00000+0 -54500-2 0  9991
2 53612  53.2175 252.9147 0016892  58.2399 349.9130 15.84386041  1149
STARLINK-4655           
1 53613U 22104AB  22247.25001157 -.01105843  00000+0 -53138-2 0  9990
2 53613  53.2175 252.9169 0017119  58.2306 348.6778 15.84284557  1148
STARLINK-4654           
1 53614U 22104AC  22243.58334491  .00236092  33813-4  37099-3 0  9993
2 53614  53.2179 271.4719 0075172  55.1447 253.3172 15.98021498   568
STARLINK-4653           
1 53615U 22104AD  22247.25001157  .00453693  10099-3  61666-3 0  9997
2 53615  53.2173 252.6039 0069311  68.2383 128.5387 16.00917879  1159
STARLINK-4605           
1 53616U 22104AE  22247.25001157 -.01460440  62356-3 -34370-2 0  9993
2 53616  53.2179 252.6645 0045361  66.2233 106.3961 15.94329210  1150
STARLINK-4601           
1 53617U 22104AF  22247.25001157 -.01131090  00000+0 -54220-2 0  9990
2 53617  53.2176 252.9139 0017011  57.9608 350.5474 15.84397934  1141
STARLINK-4604           
1 53618U 22104AG  22246.91667824 -.01205342  00000+0 -55092-2 0  9992
2 53618  53.2172 254.5887 0020924  57.5682 249.2394 15.85380747  1084
STARLINK-4609           
1 53619U 22104AH  22247.25001157 -.01131405  00000+0 -54131-2 0  9993
2 53619  53.2175 252.9130 0017548  58.4122 350.3876 15.84417668  1146
STARLINK-4615           
1 53620U 22104AJ  22247.25001157 -.01108829  00000+0 -52880-2 0  9998
2 53620  53.2175 252.9101 0016292  57.5903 352.9161 15.84477356  1143
STARLINK-4608           
1 53621U 22104AK  22247.25001157 -.01119006  00000+0 -53472-2 0  9996
2 53621  53.2175 252.9118 0017032  57.9389 351.5946 15.84433172  1141
STARLINK-4568           
1 53622U 22104AL  22247.25001157 -.01159292  00000+0 -55327-2 0  9999
2 53622  53.2174 252.9096 0016950  54.2587 356.8518 15.84557834  1149
STARLINK-4573           
1 53623U 22104AM  22247.25001157 -.01159453  00000+0 -55504-2 0  9996
2 53623  53.2174 252.9111 0016695  53.8356 356.3150 15.84505225  1147
STARLINK-4596           
1 53624U 22104AN  22247.25001157 -.01120185  00000+0 -53252-2 0  9995
2 53624  53.2176 252.9082 0017235  58.3144 353.2265 15.84534424  1149
STARLINK-4603           
1 53625U 22104AP  22247.25001157 -.01135124  00000+0 -54103-2 0  9991
2 53625  53.2175 252.9092 0017114  57.9742 352.8395 15.84520903  1141
STARLINK-4554           
1 53626U 22104AQ  22247.25001157 -.01158826  00000+0 -55197-2 0  9990
2 53626  53.2174 252.9069 0016309  53.7353 358.7688 15.84620563  1145
STARLINK-4595           
1 53627U 22104AR  22247.25001157 -.01159007  00000+0 -55289-2 0  9995
2 53627  53.2174 252.9078 0016349  53.7428 358.0750 15.84588635  1149
STARLINK-4600           
1 53628U 22104AS  22247.25001157 -.01102694  00000+0 -52222-2 0  9990
2 53628  53.2176 252.9051 0016241  57.1338 356.0168 15.84607694  1140
STARLINK-4602           
1 53629U 22104AT  22247.25001157 -.01103827  00000+0 -52404-2 0  9992
2 53629  53.2176 252.9065 0016365  57.3729 354.8210 15.84555632  1147
STARLINK-4598           
1 53630U 22104AU  22247.25001157 -.01106031  00000+0 -52377-2 0  9993
2 53630  53.2176 252.9043 0016051  57.4699 356.0631 15.84623585  1148
STARLINK-4599           
1 53631U 22104AV  22247.25001157 -.01104151  00000+0 -52370-2 0  9998
2 53631  53.2175 252.9052 0015999  57.4371 355.4266 15.84588888  1148
STARLINK-4606           
1 53632U 22104AW  22247.25001157 -.01132081  00000+0 -53526-2 0  9996
2 53632  53.2176 252.9032 0017070  58.2300 355.9309 15.84679899  1147
STARLINK-4593           
1 53633U 22104AX  22247.25001157 -.01158519  00000+0 -54975-2 0  9990
2 53633  53.2174 252.9038 0016615  53.8162   0.0373 15.84685534  1145
STARLINK-4592           
1 53634U 22104AY  22247.25001157 -.01158384  00000+0 -54789-2 0  9994
2 53634  53.2174 252.9024 0017013  54.3025   0.5137 15.84737122  1142
STARLINK-4587           
1 53635U 22104AZ  22247.25001157 -.01158460  00000+0 -54867-2 0  9997
2 53635  53.2174 252.9026 0016682  54.2245   0.2385 15.84722051  1146
STARLINK-4586           
1 53636U 22104BA  22247.25001157 -.01158690  00000+0 -54660-2 0  9994
2 53636  53.2174 252.9012 0017560  56.5635 358.9132 15.84770361  1146
STARLINK-4396           
1 53637U 22104BB  22247.25001157 -.01131963  00000+0 -53413-2 0  9994
2 53637  53.2176 252.9006 0016708  58.0887 357.0511 15.84734272  1143
STARLINK-4594           
1 53638U 22104BC  22247.25001157 -.01158037  00000+0 -54612-2 0  9998
2 53638  53.2174 252.9001 0016748  53.9268   2.1633 15.84806280  1140
STARLINK-4422           
1 53639U 22104BD  22247.25001157 -.01158063  00000+0 -54686-2 0  9999
2 53639  53.2174 252.9001 0016444  53.6415   2.1078 15.84790492  1145
STARLINK-4597           
1 53640U 22104BE  22247.25001157 -.01146842  00000+0 -53901-2 0  9992
2 53640  53.2175 252.8986 0017796  59.0270 357.4113 15.84808816  1145
STARLINK-4588           
1 53641U 22104BF  22247.25001157 -.01157973  00000+0 -54456-2 0  9996
2 53641  53.2174 252.8980 0017465  54.3567   2.4425 15.84836033  1144
FALCON 9 DEB            
1 53642U 22104BG  22246.59145169  .00538604  14041-3  71433-3 0  9995
2 53642  53.2198 256.0055 0070187  67.0551 293.7867 16.01165616  1040
FALCON 9 DEB            
1 53643U 22104BH  22246.40257226  .00527541  13540-3  70617-3 0  9998
2 53643  53.2185 256.9575 0066842  67.6260 293.1837 16.01454215  1013
FALCON 9 DEB            
1 53644U 22104BJ  22246.58547238  .00517647  13309-3  64478-3 0  9990
2 53644  53.2176 255.9568 0064364  64.1360 296.6291 16.02847300  1042
FALCON 9 DEB            
1 53645U 22104BK  22246.58472137  .00547214  14853-3  67824-3 0  9992
2 53645  53.2181 255.9513 0063990  65.3829 295.3853 16.02965631  1055
